{"fetched_at":"2026-07-12T05:52:37.085Z","source":"https://celestrak.org/NORAD/elements/gp.php?GROUP=spire&FORMAT=JSON","constellation":"spire","records":[{"OBJECT_NAME":"LEMUR-2-WOBLER","OBJECT_ID":"2026-004F","EPOCH":"2026-07-11T07:24:17.476704","CLASSIFICATION_TYPE":"U","MEAN_MOTION":14.88681461,"ECCENTRICITY":0.00097094,"INCLINATION":97.8047,"RA_OF_ASC_NODE":190.6154,"ARG_OF_PERICENTER":60.82,"MEAN_ANOMALY":299.3988,"EPHEMERIS_TYPE":0,"NORAD_CAT_ID":67368,"ELEMENT_SET_NO":999,"REV_AT_EPOCH":2688,"BSTAR":0.00021191421,"MEAN_MOTION_DOT":0.00001924,"MEAN_MOTION_DDOT":0},{"OBJECT_NAME":"LEMUR-2-GRAM-E-SUE","OBJECT_ID":"2026-004H","EPOCH":"2026-07-11T12:02:57.101856","CLASSIFICATION_TYPE":"U","MEAN_MOTION":14.88579696,"ECCENTRICITY":0.0008751,"INCLINATION":97.7979,"RA_OF_ASC_NODE":190.6754,"ARG_OF_PERICENTER":71.0055,"MEAN_ANOMALY":289.211,"EPHEMERIS_TYPE":0,"NORAD_CAT_ID":67370,"ELEMENT_SET_NO":999,"REV_AT_EPOCH":2691,"BSTAR":0.00012819202,"MEAN_MOTION_DOT":0.00001139,"MEAN_MOTION_DDOT":0},{"OBJECT_NAME":"LEMUR-2-KATIE","OBJECT_ID":"2026-004AA","EPOCH":"2026-07-11T12:43:34.540896","CLASSIFICATION_TYPE":"U","MEAN_MOTION":14.90230139,"ECCENTRICITY":0.00037621,"INCLINATION":97.8041,"RA_OF_ASC_NODE":191.2424,"ARG_OF_PERICENTER":42.1241,"MEAN_ANOMALY":318.0266,"EPHEMERIS_TYPE":0,"NORAD_CAT_ID":67387,"ELEMENT_SET_NO":999,"REV_AT_EPOCH":2693,"BSTAR":0.00030562873,"MEAN_MOTION_DOT":0.00002909,"MEAN_MOTION_DDOT":0},{"OBJECT_NAME":"LEMUR-2-HCS-BAZUS","OBJECT_ID":"2026-004AB","EPOCH":"2026-07-11T14:17:56.822784","CLASSIFICATION_TYPE":"U","MEAN_MOTION":14.90249329,"ECCENTRICITY":0.000328,"INCLINATION":97.8037,"RA_OF_ASC_NODE":191.2861,"ARG_OF_PERICENTER":41.7543,"MEAN_ANOMALY":318.3925,"EPHEMERIS_TYPE":0,"NORAD_CAT_ID":67388,"ELEMENT_SET_NO":999,"REV_AT_EPOCH":2694,"BSTAR":0.00016572,"MEAN_MOTION_DOT":0.00001552,"MEAN_MOTION_DDOT":0}]}
